{"type":"Feature","properties":{"label":"District data unavailable","note":"Inside the Survey of India national outline; not covered by the bundled historical district dataset. No district alert is assigned."},"geometry":{"type":"MultiPolygon","coordinates":[[[[74.83582846961048,37.03799361455846],[74.83890181962664,37.03584345422338],[74.84087392359626,37.03214312486391],[74.83346736271078,37.014723380592514],[74.83478585084926,37.00526426923562],[74.89650254149863,36.94152391876778],[74.90975939109138,36.92175527368844],[74.91557906681324,36.92025947443956],[74.93412726834157,36.93837002269698],[74.9540178777689,36.954618912776894],[75.01567141310831,36.99072294948752],[75.02321798744065,36.99211244245532],[75.03708271109188,36.988993290621806],[75.05519450809392,36.97431875840988],[75.09125028640655,36.961068218768446],[75.10915168266693,36.961898978648854],[75.15296056991149,36.98816484054288],[75.1772115496968,37.02024519499456],[75.196927470563,37.042430729093084],[75.2109562495656,37.05001680543298],[75.27653575008044,37.06015362437183],[75.32078391579051,37.064281103756194],[75.33628346635358,37.062829801335994],[75.34131369736147,37.060763155030955],[75.3465731621489,37.05272103854355],[75.3503739990408,37.01911915909941],[75.3484078139945,37.00491679848846],[75.35442738877961,36.988482856663715],[75.36888844418112,36.975157595031966],[75.37924441062026,36.97458205312014],[75.40368630395864,36.98216574529426],[75.41368226409436,36.97743315461151],[75.4184478726948,36.972395898735094],[75.42488175680131,36.95235557875248],[75.41106076241881,36.921519616822636],[75.4069208416304,36.90803344751485],[75.40877812334625,36.90375470499197],[75.41764704159625,36.90325871427721],[75.42967842777169,36.90497063548142],[75.44182938069595,36.899517523214946],[75.44981846801076,36.888929102185585],[75.45834214507981,36.841924332028896],[75.46326656331844,36.83031329438917],[75.48802012889662,36.81638878823975],[75.58552584040395,36.786377878969375],[75.61272425552023,36.77527024657635],[75.6628101672999,36.72166247784656],[75.72053111472002,36.638340106161316],[75.73466228993476,36.622593351125936],[75.74442368631186,36.607697649871604],[75.8070215397644,36.56342369040052],[75.85243243150163,36.558341235116146],[75.86679821720035,36.54554700704255],[75.89077778274694,36.5327728285069],[75.94503801322209,36.511605775368366],[76.01006281390285,36.49513371783974],[76.05333125341194,36.491303113702806],[76.07115386304494,36.48424232307085],[76.0916902941359,36.47462395237551],[76.11171795769992,36.45965941453894],[76.14462149751738,36.428549215359254],[76.16395310401363,36.40645164510091],[76.17672137237123,36.40088183898656],[76.20072914902897,36.3969996680906],[76.23026433419012,36.381420447574406],[76.24409475895028,36.37159639374584],[76.26650195845232,36.35884296342589],[76.27440442426521,36.3565544303155],[76.32099826478097,36.36496381233896],[76.33992321418901,36.36973832943318],[76.35392723348228,36.36944723487807],[76.37979627708192,36.34689667260622],[76.41339385152163,36.328026613783734],[76.43749990926166,36.31035342354019],[76.4485003073841,36.27201167859844],[76.44566078607492,36.265622786409224],[76.43678302976892,36.25782946787869],[76.44819676351256,36.246342523262385],[76.46825160977708,36.24027173928697],[76.48098103284535,36.21973462172431],[76.51031694204379,36.21066695563998],[76.54928672051143,36.20216021588342],[76.56539212507526,36.18617251532237],[76.59409381825067,36.17832092520254],[76.61691221640969,36.178019758283334],[76.64468217805918,36.197705448165905],[76.65592379861026,36.19218419121971],[76.67030453217977,36.173905461661285],[76.71111692784878,36.14012669836729],[76.71644460167715,36.12722251212007],[76.71525816480866,36.10817680327428],[76.72009158232953,36.09769526800673],[76.75217568533431,36.08001737441453],[76.78375022649615,36.07192793634441],[76.79819935516271,36.0619928316341],[76.81368762214149,36.040628777781265],[76.81344968812279,36.03108078189682],[76.81040958251367,36.022916739908005],[76.78769954411592,36.016671809186334],[76.77036468454367,35.998108124587056],[76.75900147141856,35.9803382781197],[76.7362569932546,35.96631648258049],[76.7328557871598,35.96176134920455],[76.7321364481425,35.95463610086389],[76.73938981049812,35.94638072187309],[76.75778315787076,35.931999287985555],[76.7829946850251,35.905200339049316],[76.7987659435416,35.87962823487991],[76.8074801427322,35.849745566425696],[76.82352959316363,35.84148807296309],[76.86114806078122,35.835952568768725],[76.88739419125946,35.8126438699947],[76.90379524308922,35.807939028063345],[76.92504737098902,35.79333290020831],[76.93561244441094,35.78902238351359],[76.95699244694144,35.78994938213112],[76.98243788394537,35.78760323831867],[77.00100395085256,35.77556010476613],[77.01047619057387,35.77490661015019],[77.04521642151174,35.777288304716166],[77.09111198627724,35.79503218999382],[77.11565988152363,35.79810513035284],[77.12700730766275,35.7943220232754],[77.1323365523332,35.78916472140989],[77.1350412377691,35.78000419954209],[77.14578218176065,35.77745779523856],[77.1521902190962,35.76863520794945],[77.16207529479126,35.764951090936066],[77.17635571773279,35.76813460389191],[77.16903340836721,35.74053741349428],[77.1796796851237,35.730218488121345],[77.19164467123063,35.73236671755182],[77.21301340371501,35.73325194867624],[77.24191936110209,35.7084762899754],[77.2583448555342,35.704320183904336],[77.27638534865541,35.708421953915334],[77.28031320926534,35.71771379971099],[77.28743720385607,35.72259053616722],[77.29907758775045,35.708002197431014],[77.31239765087713,35.70226583289496],[77.32106790992937,35.701048099437195],[77.3325985449405,35.712786289626855],[77.33554901345919,35.71975389119631],[77.34374854595896,35.72096140716278],[77.36586677366749,35.7151871888495],[77.37800640028578,35.70534091770454],[77.3853272863228,35.69165227566695],[77.40182713295982,35.681489123609886],[77.40280771408793,35.66346953747475],[77.41155654082546,35.656256622366385],[77.42807494107907,35.65984908575469],[77.43793594670831,35.656143670474435],[77.4410258947268,35.63737154784338],[77.44173967184268,35.61697607207093],[77.44012627078428,35.602134106757475],[77.44655612445823,35.5938890433872],[77.45865397174154,35.59061725444306],[77.47188083054746,35.58427018988375],[77.47560831135768,35.57143263365809],[77.46522216970726,35.55004742067436],[77.4735014838551,35.53867345100202],[77.48276395456142,35.52962072393615],[77.47980815659201,35.522654952057565],[77.47341595389437,35.51773471779388],[77.45816545899467,35.5188444726865],[77.44299597920855,35.51396233770676],[77.43052180172994,35.51367047935135],[77.4118139145538,35.52340307772226],[77.3886583934601,35.53943739806071],[77.36197147654934,35.54315526077576],[77.33204428357898,35.530346073360015],[77.33008171168846,35.525699971679295],[77.34548695924546,35.51920897374889],[77.35292504172631,35.50670686522792],[77.3546800743606,35.49580970290833],[77.36322430798374,35.486817269152816],[77.37676238243199,35.4834481222462],[77.38523907287187,35.47386032711133],[77.41884080164462,35.46664282968716],[77.443663675066,35.45945584246845],[77.47425863500395,35.46500956525302],[77.49613500821066,35.47777672690862],[77.55663909704373,35.47573724268673],[77.62862370063739,35.46503854729373],[77.63713214189764,35.469196391115226],[77.64702550216371,35.47923644300438],[77.65309523187697,35.48118008962288],[77.6733500413697,35.465907566565015],[77.68515861321984,35.46682393549716],[77.68575348346695,35.47216676804195],[77.70778893411766,35.472917306351775],[77.72877176653125,35.47733448188651],[77.7261567373741,35.512846216520884],[77.73586585791692,35.5210982648362],[77.7491223073214,35.508732338952086],[77.76738924350494,35.49538972394588],[77.78631851474873,35.487980226014976],[77.80347924032299,35.490877655953064],[77.80963098212823,35.49999156251475],[77.82204904318725,35.50623755916484],[77.82924083215508,35.5050955113339],[77.83799267177773,35.49186236305686],[77.85262826123343,35.48536621691662],[77.86257128314226,35.476231046219716],[77.86949065503113,35.47271252214657],[77.88612793583646,35.47743486489285],[77.89375491979897,35.4672756885289],[77.91207715534868,35.46109003464737],[77.91889598736948,35.46955020986244],[77.92099466430727,35.48794938546213],[77.92931592630772,35.490307500120984],[77.95163107653345,35.471047532727745],[77.90296936035168,35.42758941650396],[77.82392883300781,35.50133132934576],[77.15682220458996,35.05469894409191],[77.01809692382818,35.03846359252941],[76.99748992919928,34.939151763916016],[76.87004089355469,34.972431182861385],[76.74936676025396,34.92660140991211],[76.74324035644537,34.84009933471691],[76.68181610107422,34.75959014892578],[76.47434234619146,34.79437255859381],[76.32872009277344,34.73305511474604],[76.15791320800787,34.64340972900385],[76.03646087646496,34.67026901245117],[75.74920654296886,34.515830993652344],[75.46463775634777,34.543388366699276],[75.3505477905274,34.562240600585994],[75.25963592529291,34.64408111572271],[75.01874542236328,34.641498565673885],[74.64798736572266,34.722618103027344],[74.58017730712902,34.77009963989269],[74.37554168701183,34.803443908691406],[74.30729675292963,34.8003044128418],[74.14179229736328,34.69120025634771],[73.96022033691406,34.69668197631847],[73.92733001708996,34.645889282226506],[73.94806671142584,34.573089599609375],[73.78965759277344,34.42703628540039],[73.77339172363293,34.34975051879894],[73.91340923128855,34.34782584047465],[73.98203277587902,34.23907852172857],[73.88432312011724,34.06135940551769],[73.91361433763777,34.08148744062309],[73.88980865478516,34.04240417480463],[74.00607299804699,34.022441864013786],[74.12369537353521,34.05517959594732],[74.22556304931646,34.033401489257926],[74.26274108886724,33.9742889404298],[74.21967315673834,33.86717605590832],[74.06572723388678,33.82009887695318],[73.96646118164062,33.74032211303722],[74.02844238281244,33.57468032836914],[74.09571075439464,33.570396423339844],[74.16460418701183,33.495647430420036],[74.17074584960938,33.346649169921875],[74.10298156738293,33.270542144775504],[74.02030181884766,33.258781433105526],[74.01427459716808,33.19824981689453],[74.11170196533209,33.164440155029354],[74.20524597167963,33.04330062866211],[74.33792114257818,33.025939941406364],[74.33489227294933,32.95476150512695],[74.35726734097832,32.95166156807582],[74.31613922119146,32.930160522460994],[74.41389465332043,32.90394973754894],[74.46605682373053,32.781360626220646],[74.47563353887817,32.775417862701815],[74.4645801801521,32.77590004404869],[74.45940890506236,32.787742365363485],[74.44446517902588,32.783507883668136],[74.42610738121843,32.78523428265198],[74.42463145383806,32.78346770800131],[74.41526113411658,32.78455879478227],[74.41001908858283,32.779475487274986],[74.40759626729646,32.77898472805281],[74.4070533133123,32.774276315086254],[74.40292916525307,32.767381853424105],[74.39423482137032,32.77212065830893],[74.39100329858543,32.763163396253496],[74.35504814748047,32.76699844439773],[74.35133164849735,32.774640364453255],[74.34740078747625,32.77483834864868],[74.34223113535235,32.77808035962721],[74.33367065995368,32.78035242805134],[74.32722701617674,32.7905860502103],[74.31447969772628,32.796837810744194],[74.31514149558457,32.80478526067709],[74.30827643636539,32.80758440920677],[74.3128315146055,32.8221775042664],[74.30339774533218,32.82984050885726],[74.29430108406467,32.83047012925269],[74.29399715025184,32.832063842538915],[74.28051623070512,32.83387578365306],[74.27665564129235,32.833629444044455],[74.27672235692084,32.83160911146785],[74.26772884366663,32.83223166846479],[74.26629800480937,32.838529143423095],[74.26342978200681,32.842091696024966],[74.24410627650657,32.8450664970193],[74.24408772331742,32.84629513556896],[74.23444657179817,32.84808730492462],[74.21964100399488,32.84881799725417],[74.21800704756745,32.85223086464384],[74.21984740727152,32.86231253712778],[74.21415808311558,32.86268051422858],[74.21126446722897,32.873433730768454],[74.19996267077286,32.87530479201336],[74.19425554327974,32.873918877421545],[74.19245758048163,32.874971707853405],[74.19072088011232,32.88294909248327],[74.1788037193454,32.88949593893067],[74.17440508131634,32.889009639353034],[74.17276878265606,32.88637127524469],[74.16870947870963,32.88779736773623],[74.16563357857257,32.886895366042104],[74.15631163927746,32.891910168732934],[74.1442553310563,32.89495281158835],[74.11678826027972,32.89760191446896],[74.10613344719222,32.90294044056239],[74.09046844635712,32.90799365100547],[74.08337839405662,32.90921229310386],[74.07354414559899,32.90828274859005],[74.06895239903633,32.9095557441726],[74.06343053476625,32.912451549809006],[74.0635241401365,32.91691894398788],[74.05968326357741,32.92008455989761],[74.05995517722732,32.93182112176642],[74.05816284784957,32.9345376055703],[74.04995727349967,32.93466786332413],[74.03917176717171,32.93044916010041],[74.02446456867644,32.92974862558009],[74.0050999184821,32.93558094899184],[73.99968100782758,32.93540005827548],[73.99870574842355,32.939479681923316],[74.0062146966233,32.95069670688521],[74.00618429031627,32.95490681382771],[73.99834017532761,32.962030840181136],[73.99508663238336,32.96314973651566],[73.98950992654147,32.96218670593207],[73.97928849305528,32.96644102630496],[73.97237063246858,32.96720658989618],[73.96949247863886,32.97084972880959],[73.97023944994365,32.97739030683522],[73.9677890774439,32.98434492653085],[73.9646446893038,32.98712369487312],[73.95797823283769,32.98699974846927],[73.95386333053425,32.98456334758254],[73.94144644265731,32.98242971702894],[73.93229797597405,32.98724328668302],[73.92498633883278,32.988375346065936],[73.92326368195191,32.990647982142704],[73.91628006787727,32.99360532601277],[73.90826402120044,33.00143263207186],[73.898743850062,33.00222793556061],[73.88792294216331,32.99747198470189],[73.88053547017587,32.99746518418084],[73.8694398752063,33.002802891269916],[73.84565182175685,33.00180102007318],[73.82566292545627,33.00401144207406],[73.82774192037607,32.98795163966551],[73.82597043622121,32.977239446735815],[73.80931057612196,32.967575376641605],[73.79758377270893,32.96593705196163],[73.79043084640419,32.966809252537615],[73.78994466843638,32.977625225414194],[73.79831610777376,32.98894215789077],[73.79451094844673,33.0035912071862],[73.784345150411,33.007258148028626],[73.78077641915351,33.01253135808716],[73.77303383586934,33.01788152729072],[73.76442922833223,33.02031807780909],[73.76273671944276,33.023347618855965],[73.75800725193399,33.02526637177351],[73.75600562486898,33.02978606631856],[73.74910670455422,33.03362002634753],[73.74763875312253,33.035957796956936],[73.7498601587198,33.05799943587],[73.74283089151952,33.066153763513505],[73.72906399503745,33.07072381101238],[73.7157229174916,33.078821456300446],[73.70969260457927,33.07943436619329],[73.69972889800685,33.084890045945464],[73.69133545291729,33.084946526265455],[73.68538808963571,33.08746304658329],[73.68157185287421,33.087473792316665],[73.67284371568998,33.08224248970003],[73.65686898875528,33.08311830855884],[73.65567835273339,33.08542066362157],[73.649438722429,33.08634199379345],[73.64194093530907,33.08319238313953],[73.6377385090139,33.08464481216046],[73.63185955978312,33.09529865841959],[73.63301808466032,33.10690423816402],[73.63132474432724,33.11755229428912],[73.63893082334927,33.12579838774313],[73.6392924157096,33.12813176827282],[73.63127379022299,33.137254029203305],[73.6312011234289,33.13951636530662],[73.63360905907454,33.14193945200997],[73.63629823430995,33.142000507971986],[73.64402527045071,33.13677662869755],[73.64868765723007,33.13747236285207],[73.64989198559351,33.15657595315924],[73.65184961505419,33.15865735147158],[73.66024008910162,33.15882482314914],[73.66448202074314,33.16134611634197],[73.66190678537708,33.17329903275494],[73.6664241836936,33.1818623853104],[73.66263781029824,33.1917062294548],[73.6680089318829,33.201857302824564],[73.66418465406916,33.207625860163866],[73.65562831709613,33.21171290959642],[73.64952874239015,33.22237665539018],[73.64762171374447,33.22282309592242],[73.64266595980597,33.219248626360184],[73.639512227245,33.20502142589089],[73.63530917282888,33.204846965058294],[73.63354983171776,33.20763605606818],[73.63451776417425,33.217894272745795],[73.63173188474556,33.22316870481527],[73.63780436507095,33.22569994078468],[73.63756334361737,33.230409457657714],[73.63631131824796,33.23272417075492],[73.62372695484903,33.23436744426465],[73.6217858809946,33.235989674524035],[73.61941138632935,33.24612494224296],[73.61319727810735,33.2482074269637],[73.61520759099156,33.25796760036068],[73.60651435540268,33.273713277832705],[73.6055261704238,33.285413172121444],[73.6141718538786,33.29289194485872],[73.60828195368579,33.2967668060255],[73.60108705995374,33.298711130707815],[73.59564235306159,33.30283676859682],[73.59420011463214,33.31762850254648],[73.58929589376933,33.32353706010798],[73.59015392828046,33.326932784889976],[73.5976335044521,33.32777769568707],[73.59935641409439,33.329508806252214],[73.59802802007889,33.337518733962476],[73.59550215944012,33.34016008003107],[73.5935585301034,33.34006504610551],[73.58746301909349,33.33554471755193],[73.58306918211261,33.32896144419989],[73.58026759338472,33.327187210475905],[73.57841981679394,33.32862378119831],[73.5772030974861,33.33500211449945],[73.5753151823998,33.337524647318205],[73.57110534930457,33.33906483412405],[73.57048791411444,33.342977176456564],[73.58376853191984,33.35567573667982],[73.58146774148958,33.35848755072738],[73.57187822675594,33.356649975951164],[73.56515453635173,33.36625132282688],[73.56513050347165,33.369324383053],[73.57114021444075,33.37936107238258],[73.57058989848225,33.38435462301485],[73.57331747445015,33.391824565181444],[73.58108982227766,33.39554909996243],[73.58190932378788,33.40322816010204],[73.58850063246572,33.40573664140862],[73.58908744044693,33.411307484052],[73.59087593420479,33.4132275809041],[73.59911956686229,33.41546292869678],[73.60316012508578,33.41908250913214],[73.60173372642907,33.422943155951664],[73.58670810495838,33.422805304766065],[73.58614455698937,33.42522863563628],[73.58939701490168,33.42768401026504],[73.59594038406411,33.42939475845657],[73.59606436715917,33.43898349894092],[73.60399770093306,33.440033004680224],[73.60936587030577,33.43819709045444],[73.61313252902339,33.44122883292667],[73.61592371213122,33.44770154784518],[73.63189207688976,33.4475944723289],[73.63207023228476,33.457980393345935],[73.63053133471162,33.460047385373755],[73.62824124229611,33.46154798295271],[73.61995555973857,33.462514274778805],[73.6201323571988,33.47290014232618],[73.61866819692698,33.476162915528285],[73.61633987244068,33.47706531895536],[73.61437438365387,33.47615275823923],[73.61265905940498,33.47163133105542],[73.6104684202112,33.47092853375966],[73.61094463796807,33.48230049277189],[73.60424673854104,33.485793950889665],[73.60508546210856,33.49155335364769],[73.60206774370984,33.49668321688654],[73.60294412707653,33.49924296378944],[73.60539835228246,33.50033403680487],[73.6112960597361,33.49927440486583],[73.61868329889246,33.49535041654691],[73.61941008796929,33.49931581201469],[73.61213559671323,33.508831323549714],[73.61144706050733,33.51305905635792],[73.62045194158465,33.5158593793079],[73.63029804403057,33.524418210694314],[73.64110769346443,33.52553822896628],[73.64177270335303,33.52850685927537],[73.64102240214102,33.531738135251224],[73.63073933080021,33.53519186152937],[73.62441448784256,33.54086823301303],[73.62408924485146,33.54328107664229],[73.62736050098972,33.54973218730559],[73.62526997453969,33.55821921795761],[73.62870634121815,33.57105881376259],[73.62191581301087,33.58075280572309],[73.61078669115093,33.58604072257855],[73.60604890709928,33.58664922020528],[73.60498348719481,33.58869479872114],[73.61171503080375,33.600789862769425],[73.61190324544859,33.60377953866328],[73.60914530722852,33.60550000006396],[73.60089663515694,33.599667389874625],[73.59853987327715,33.600170787460044],[73.5953800024483,33.60690520029344],[73.58826991634476,33.61541182308387],[73.58548618018611,33.61673313688252],[73.57541826134265,33.616175095263436],[73.56715499790067,33.61773581843554],[73.56902028303215,33.62464930763847],[73.57601419442634,33.63333688211512],[73.57774324783851,33.638057760222196],[73.57729037947527,33.64227460493406],[73.56788890041376,33.660073387542404],[73.56745869998029,33.66848606781111],[73.5786820991438,33.683583738588425],[73.58841763725535,33.69015203161898],[73.59715033533924,33.69976147434275],[73.60313598839916,33.71508701448182],[73.60302247501399,33.72848206757958],[73.5987032929108,33.735866418727745],[73.59464599355572,33.751232997663784],[73.58395768199364,33.76009498679228],[73.57482665225479,33.76329225789328],[73.56963622014553,33.77211228536428],[73.56383212940366,33.77496352767719],[73.55992250378655,33.781329071086375],[73.56683542849797,33.80001246126185],[73.56970623580662,33.81527478839488],[73.57470496526365,33.822450551991345],[73.577951772616,33.847488125834204],[73.58716316345179,33.86067415846089],[73.5877888721412,33.874435319842405],[73.59333355234702,33.87878877147685],[73.59354571060703,33.889770270599335],[73.59091583453082,33.89747899082345],[73.58443644835434,33.9049562683244],[73.56312042512364,33.92047353582079],[73.5577180031831,33.92990053199925],[73.5500528841766,33.93383045435244],[73.54760974943387,33.93693385740301],[73.54540292618124,33.943823546528584],[73.53779232919557,33.95634247773515],[73.53642604393924,33.96519364061032],[73.53254335010897,33.97215547677955],[73.53219843166443,33.97816486918163],[73.52909789906302,33.9822952669534],[73.52778337325005,33.988146703146434],[73.52606809202695,33.99141784453642],[73.51645362676985,33.99882632033693],[73.5178895693038,34.021798222185076],[73.51135646237545,34.03260420184237],[73.51139147822836,34.04944155281906],[73.50779731507224,34.06485631519123],[73.4996745631141,34.07457195440941],[73.49922712967778,34.08774611843365],[73.50129469091316,34.09660260850089],[73.49763260222487,34.104863218708914],[73.4983473332441,34.11230440618542],[73.49443337181317,34.12467983428798],[73.49719348704323,34.13245412756728],[73.490933412001,34.13966813027799],[73.49355443124117,34.14723792302989],[73.4913003899935,34.153753839835005],[73.49237164682475,34.16286327332089],[73.49083957962512,34.170821411452664],[73.49357080591695,34.17607124813552],[73.49110641850545,34.18533204883988],[73.49438383518444,34.195293856066684],[73.49274717909098,34.20157261643118],[73.49860898412122,34.20826659480834],[73.49853890292005,34.21121605418372],[73.48202303629289,34.230864384150685],[73.47283366150826,34.2523021939937],[73.47304190424302,34.25976434318306],[73.47594375828515,34.26774288109093],[73.4844829932131,34.27463872460206],[73.4808359685113,34.28942071500628],[73.47854414000878,34.29130736131678],[73.47550299892613,34.291331909486814],[73.47199422844912,34.28380023573712],[73.45986338123868,34.276214677641576],[73.4567092816511,34.2764540557094],[73.45558407069602,34.28081604896963],[73.4606507929026,34.28691395014403],[73.46040757488926,34.28913397620571],[73.45223613496256,34.30052964965686],[73.44554959184723,34.303128338799205],[73.44719498625268,34.31337014972941],[73.44451785505535,34.321375189859275],[73.44180245857682,34.32464687751243],[73.43310918379511,34.32764546575857],[73.42507417374189,34.3372443319649],[73.42467119800592,34.33894483009782],[73.43072550323197,34.34458112368881],[73.42994302877047,34.346297677414995],[73.42133930764403,34.34666112233],[73.41662351777434,34.350437428512755],[73.40786069190496,34.350280583714756],[73.40430222889549,34.35432331139511],[73.40301201849653,34.362268679906826],[73.39609684516441,34.371607697994776],[73.39912497021216,34.375478582671924],[73.40915149259804,34.37758198488084],[73.41617488224401,34.40106421820358],[73.42323379351303,34.41886294030229],[73.42773753169202,34.42603761657881],[73.42578301459415,34.45620994928011],[73.4218004337876,34.463742428752596],[73.42194229025634,34.466051004667136],[73.43516777645688,34.48485090330119],[73.43726694932525,34.50653971601708],[73.43080691138648,34.521330589870274],[73.44086914647978,34.52784904093902],[73.4462990702756,34.53961251722078],[73.44347339603365,34.55561743795831],[73.44825170986766,34.56709260207929],[73.45046286117307,34.56994463803033],[73.4538387323017,34.57106412028386],[73.46393756521955,34.57189846568582],[73.47021130461364,34.56847611923916],[73.49324004586923,34.57475481063592],[73.5171636269121,34.57089170415588],[73.53217693297808,34.57098407948885],[73.53871020226967,34.57375418485309],[73.55613150035963,34.58983646459266],[73.57227892546416,34.58366830995837],[73.5849640093978,34.58511780348665],[73.6111498437274,34.584821364372715],[73.6251888639231,34.57558194520462],[73.63300918265155,34.56261501028033],[73.63732715398044,34.5605322623589],[73.65026361755304,34.56196425249193],[73.65979942315136,34.579746897279044],[73.65985575079036,34.58458406464124],[73.65412690317652,34.596408625443324],[73.65375516460202,34.60052805029602],[73.66773060622684,34.61800968493182],[73.6904750307597,34.64109968451687],[73.69467654494159,34.647016073992056],[73.69500029475964,34.65005273785323],[73.69291882260522,34.65330084500148],[73.68771573125228,34.65552941712396],[73.66351183482705,34.66322284216826],[73.66025917144515,34.66610095379231],[73.65905374734886,34.67309720539301],[73.66645235501889,34.6831872434835],[73.66831415784213,34.688365477011594],[73.67896682121142,34.69357768525021],[73.68458109871302,34.707532443418295],[73.70462827976216,34.722006692516814],[73.71184854522224,34.74293748944794],[73.719218133873,34.75239453098071],[73.72235653831936,34.763406359712626],[73.72994218105808,34.77222199272995],[73.73710186182879,34.77253518426086],[73.75630313806126,34.787354823329565],[73.77230683471313,34.79610808559371],[73.78372842968362,34.791389105481876],[73.80078113607412,34.79472687134832],[73.81802641458731,34.791321004265676],[73.82177601495013,34.792098792560985],[73.83771233968638,34.81315560185808],[73.8431441782981,34.81427755422655],[73.85666319081977,34.80851042548811],[73.8629851295504,34.80959117779661],[73.87093733169682,34.81406914576226],[73.87677922834645,34.81559186806751],[73.88224056467548,34.81523804995967],[73.89499176627254,34.818969932228384],[73.8993157135363,34.818772509413776],[73.90491219623443,34.812835854994574],[73.91937364142433,34.811647824696],[73.92576767433508,34.8175615977534],[73.9304681422848,34.832389831836295],[73.95134949515456,34.83363876118162],[73.95798570670956,34.83554212802626],[73.96099754378679,34.83855928193292],[73.96117645529237,34.84307475034386],[73.96640531370252,34.854300445977955],[73.96743558823702,34.863826206474755],[73.9766107646327,34.86361259344415],[73.99272252309926,34.86591730046447],[73.99909373077323,34.86885083394471],[74.00050770469093,34.8752321839777],[74.00568148763864,34.873264997376026],[74.01503697508329,34.875247554977804],[74.02043383347021,34.87246349945513],[74.02991569962653,34.87628112842554],[74.03079864136106,34.88303236230092],[74.04196707426797,34.89103009763473],[74.03472284105491,34.90149944178208],[74.03720021091037,34.919227871430216],[74.03886700063781,34.92110712222721],[74.05366517240395,34.92490500687091],[74.07117044847148,34.935481569668205],[74.06414616297643,34.95722361376096],[74.06441944487905,34.9631970222117],[74.06095740549073,34.967733764551575],[74.06222219757204,34.973890901807735],[74.06103441261861,34.976939605549894],[74.06329114482088,34.98328045854835],[74.05977272643592,34.98701387223064],[74.05932483511707,34.99267553202211],[74.0655542402817,34.99779419472425],[74.0896088015635,35.001779743487646],[74.09482407680557,35.00425667343487],[74.09749525508215,35.01048366966165],[74.10974695698536,35.016074678787376],[74.10587840293648,35.01837477681296],[74.0982216236577,35.03217757455461],[74.09487798187023,35.033992205367205],[74.08943336729601,35.032959418127966],[74.07796364558772,35.03865397643069],[74.07341990029585,35.0457720464905],[74.06673749066996,35.046269369970084],[74.07358440596177,35.05460253111454],[74.07116689736166,35.05849048618407],[74.07989653944188,35.06811598433396],[74.0819145711764,35.07943706096234],[74.08839862322924,35.084103909477356],[74.10143039160393,35.09914150832093],[74.11139659030272,35.10069727898291],[74.11914670137469,35.104198193584644],[74.13238874459952,35.10292786254292],[74.13367186643981,35.11004802343399],[74.12793511672534,35.11611926192294],[74.11901801250437,35.118381727684245],[74.11098562411347,35.125296909165606],[74.10586095009793,35.125722497762624],[74.10707462173599,35.13026829632312],[74.11364442157505,35.13769162156009],[74.11398797257493,35.14421157608311],[74.11227211696617,35.14852713349626],[74.10662877708096,35.14796449206996],[74.09581403540679,35.14074051284431],[74.09105544195074,35.14160853924674],[74.08517321660551,35.14888103117079],[74.08005979335746,35.149489104187815],[74.07213372189092,35.15317447649108],[74.06341469474411,35.147046508740374],[74.05116156298887,35.14651420537515],[74.04410294444422,35.14978913661953],[74.03381399014178,35.146862275394454],[74.02536124530927,35.15268644968077],[74.01655886669924,35.16322085620581],[74.00476195949808,35.16772572897548],[74.00498277653146,35.17747283661288],[74.00282805906394,35.183647823768474],[73.99962938665944,35.18278324487149],[74.00029954442913,35.17998633622422],[73.9777026648778,35.18064189967304],[73.95684471119618,35.16804498404287],[73.9417010411024,35.18645800385175],[73.92454905511718,35.203897024907555],[73.91520885327333,35.208024079196285],[73.89696814530397,35.21169155884586],[73.8662345744657,35.20617600700219],[73.86118917004225,35.20714414481628],[73.85278431664142,35.214061612437696],[73.84537425344321,35.2246344207473],[73.83480645429928,35.2262200866637],[73.80832785427829,35.23949640587754],[73.770508421141,35.23600194441338],[73.75656714434078,35.22292863547577],[73.7411547434435,35.21485309872293],[73.73352517857398,35.208529230168935],[73.7202335927212,35.21441989556968],[73.70798409678125,35.222483589441865],[73.71906267937051,35.242472151509254],[73.72497501591351,35.27304851337677],[73.69851427377388,35.310104472337606],[73.69484255499293,35.318405774279356],[73.69514085506823,35.332206474072684],[73.69289214299873,35.35080522582986],[73.69543898998955,35.369070274662846],[73.69828298649604,35.37572891822421],[73.71486314636702,35.39436437127019],[73.7270230948012,35.41898866923238],[73.73958690061112,35.429041265310026],[73.75240151627499,35.43599843169169],[73.7920385809283,35.45421966514868],[73.78541708432637,35.47708247555059],[73.78127846408265,35.512412575212046],[73.77850494301593,35.522894258630664],[73.7296141539802,35.52949253412728],[73.72529082184795,35.53486164969027],[73.72436051291109,35.543657582865876],[73.72125591060947,35.549219523759476],[73.67343037409306,35.544651405974705],[73.65883845469241,35.547628563846615],[73.65181630577207,35.55101586294448],[73.63795438059884,35.56296003879938],[73.62838840451502,35.569045233106046],[73.62212294265757,35.567835950976985],[73.6092755091407,35.55815538543146],[73.6017202800573,35.55564433674033],[73.5866737187784,35.55394733771196],[73.56159722271661,35.546388670646344],[73.55679828823602,35.54683994345781],[73.55024715146705,35.55057142725297],[73.53673492680099,35.56347574371621],[73.52792425038069,35.5673018830563],[73.52211959486951,35.566191620668484],[73.50726239424834,35.55794284282466],[73.5015052518051,35.557569449499155],[73.49591895407276,35.559901075949355],[73.4810925009741,35.5712516942288],[73.4773608056838,35.571901673248775],[73.39812355026356,35.55708280294217],[73.39184090259361,35.56769894696111],[73.37323406836835,35.588932240980554],[73.36348210006436,35.59722367077875],[73.32735490349594,35.60622415914696],[73.29972998666453,35.611170906377225],[73.26867792421199,35.62438607466387],[73.25989395262316,35.62893167069391],[73.24959839583283,35.638468197235895],[73.23118463759474,35.65116445490601],[73.2126157267444,35.66891768717532],[73.19432271124205,35.67371436410005],[73.16239899077593,35.69322255118219],[73.15766790562559,35.7000652657646],[73.15360490354807,35.700348897127526],[73.13795948826822,35.706634925912695],[73.13291516498802,35.71077731410987],[73.12810822951641,35.7163891614411],[73.12641650740474,35.72101582591832],[73.12650045357903,35.77622682939989],[73.13720918401384,35.8191868587186],[73.1411891521666,35.825069076672385],[73.14791424958057,35.82874816189471],[73.1486640722499,35.831183366663545],[73.14076084266011,35.838272040350425],[73.12028791824467,35.84782427617435],[73.105873326066,35.8575064998695],[73.08388280952663,35.877462645527785],[73.07425780761099,35.8785754220501],[73.0681504310488,35.87770298955816],[73.05803889278405,35.86269099131048],[73.02882438082679,35.847058073728334],[73.0242654275848,35.84674028333375],[73.01230493382157,35.849293776710965],[73.00022845378564,35.85777084930463],[72.98707777434,35.859810612648786],[72.97764333234696,35.857432068557486],[72.95826630684566,35.84721685390187],[72.9295854211588,35.84024839770831],[72.91844227966982,35.83905731457333],[72.89836632632529,35.84077661053745],[72.89244750217223,35.84454085967997],[72.88932769506197,35.84884440653371],[72.8890434919313,35.85433022780331],[72.89356659899327,35.871391775566735],[72.89112688130389,35.8737373951567],[72.88271852134437,35.87550055478819],[72.87278322119164,35.87474352781708],[72.83931703257377,35.867128353482464],[72.81915767277704,35.881720315557196],[72.81570266996614,35.88007617128576],[72.81253942980511,35.86586117215794],[72.80820783151303,35.85909615928063],[72.80343438408084,35.85862731224578],[72.79659613399883,35.86016630848314],[72.78914097198488,35.857701833930825],[72.78742865705969,35.85534906312156],[72.78652182480718,35.84249991857054],[72.78428867157486,35.84145437026219],[72.77940748476762,35.84259891582255],[72.77519184187837,35.84146457696351],[72.76484654560242,35.83314607254421],[72.76143859711046,35.83230394788602],[72.74293650785926,35.844730957211226],[72.72657914344697,35.853051952433326],[72.72336818764654,35.852201728202],[72.69986874448335,35.83098734404891],[72.68438379242461,35.82252516019242],[72.67792363357269,35.82372246303596],[72.64967207828495,35.838899553329085],[72.62813964821547,35.85785793195723],[72.62516974516407,35.85780189296882],[72.61880147636806,35.853357287552406],[72.60994155722167,35.861559401246915],[72.58510091898125,35.85937260895076],[72.58002491091787,35.86438069597185],[72.57047514808579,35.88210352692887],[72.5654223515408,35.88759304455432],[72.56056950430941,35.889372212756456],[72.55823539249407,35.897664742684206],[72.54303024094493,35.8944900063019],[72.53953392035088,35.89573827594727],[72.5316078524546,35.90309688066559],[72.51847361744166,35.90548266954138],[72.51502669667853,35.92669225912274],[72.51689216583226,35.93210179925727],[72.51276254451186,35.936429948734954],[72.51307732713134,35.93867301567696],[72.52635419253934,35.95028952601162],[72.53488634937413,35.95063852403985],[72.53582847485386,35.961070355788785],[72.54241106814514,35.969535841986456],[72.53932479769844,35.9862244304525],[72.54882741588939,35.982353379603836],[72.55996380227799,35.98695711330203],[72.56225725350706,35.989131140184845],[72.5593220586116,35.99357985487436],[72.56728802548619,35.998132182898104],[72.56797942607363,36.00143921383903],[72.56878185666315,35.999445857970656],[72.56776670946712,36.00284473031087],[72.57111500341746,36.00836700662813],[72.5808570172264,36.01330239971813],[72.58352529663152,36.017073964960616],[72.58163467131027,36.021725986745125],[72.58459509351785,36.02507964454956],[72.58269046386657,36.02994605557681],[72.57939545981505,36.03582843707572],[72.56875932378773,36.04462277619039],[72.56435169077736,36.04723022699825],[72.55833216697486,36.04611147284873],[72.53574004465328,36.047291272965516],[72.5259177193022,36.05977458375038],[72.51668047148199,36.06733485634096],[72.52081177821465,36.09830628105426],[72.52761512305746,36.11022323459882],[72.53414615986543,36.116657913073055],[72.54037735957533,36.12769414634887],[72.54780737579016,36.130064414370416],[72.56170494997332,36.139890004078204],[72.56122835967822,36.14397139324711],[72.55346371968075,36.146714767682944],[72.55071975149839,36.150015127383156],[72.55124673863634,36.16131714129593],[72.54913284936782,36.16464432848655],[72.53592130611607,36.173304980380266],[72.53577643214905,36.175520293567686],[72.5424884524513,36.1824731765538],[72.54564742466599,36.19542457599403],[72.5505036262886,36.198537740355626],[72.54731437031104,36.205406497049914],[72.55750311367437,36.21404468822294],[72.56486210360902,36.214359800068415],[72.57394614350454,36.223803593314585],[72.57237384558647,36.22852015456866],[72.57273741461927,36.23912799122262],[72.57694310540347,36.24255361549664],[72.58071676516278,36.25262308473532],[72.58769069903398,36.25889957598274],[72.59421129569446,36.25917750770165],[72.59867295295865,36.26192988124921],[72.60511640262371,36.26339985491877],[72.61168265334143,36.2694868607013],[72.61886809048943,36.269279636262695],[72.62396089662626,36.26881252640941],[72.64446053081576,36.25840711618417],[72.65453516776552,36.259174778538195],[72.66219539276155,36.25813174750514],[72.66509428006628,36.255691777944705],[72.6702300944772,36.25454184680069],[72.68001843450054,36.24333818090737],[72.68483394089199,36.24388259667907],[72.6834325546099,36.24929008280817],[72.67416563335432,36.26222382198089],[72.6805605011091,36.27103386370023],[72.68543183118899,36.27072645177145],[72.69264195287202,36.27342097348203],[72.70755695176948,36.27438881736824],[72.71123486043813,36.27625109414527],[72.7134075172118,36.2785626082714],[72.71406747827679,36.28473908722556],[72.71974825655036,36.28497701946554],[72.72112686169937,36.28981702251183],[72.72655401502465,36.290727275374024],[72.73113673429495,36.29826287317524],[72.74825078624038,36.301197510653104],[72.75651789126967,36.29727237231207],[72.75917766219797,36.29857863107304],[72.76094167139364,36.30070148205007],[72.76090323397118,36.30462788501518],[72.7659371425893,36.3084236943125],[72.77032410333963,36.30911841971972],[72.77390135210415,36.31592728396282],[72.7782454676118,36.31730307985327],[72.78887186054787,36.326111485465404],[72.79994127375333,36.327936028827054],[72.80334737141058,36.33080912485833],[72.80861461222412,36.35100494242171],[72.81608189899255,36.35643561530073],[72.84009413978266,36.367327681337144],[72.84821313426707,36.36578337877388],[72.85366629353224,36.36634879521647],[72.85096522186797,36.37238415492083],[72.8586068353433,36.37508795219457],[72.86406827576641,36.378897079791244],[72.87411529232001,36.39040518696588],[72.87554436013926,36.39456073751137],[72.87180131856331,36.40038235122789],[72.87008957315747,36.40748183595213],[72.87066546168151,36.41177289762774],[72.87583313607561,36.41693451368897],[72.87460927746214,36.41961554526737],[72.85915491457952,36.433661903849654],[72.85966942977754,36.43556049525023],[72.88658016669741,36.444341678585154],[72.90460941640163,36.46009538765305],[72.90814949500563,36.460922109899876],[72.92360989258655,36.45352938293338],[72.92859325290337,36.45492630335979],[72.94606150414661,36.46621499223473],[72.94970793372002,36.46192547625657],[72.9555772939397,36.459261611253595],[72.96344840995793,36.45838495408943],[72.97344742569614,36.45383921963163],[72.9793589796754,36.457319995203044],[72.98246818965396,36.46171163153463],[72.98264808879044,36.465643912697544],[72.98791775871987,36.469268996137025],[72.9874865501346,36.47283526358045],[72.98230208163491,36.47467439072832],[72.97476696104957,36.47351766136528],[72.97422973112096,36.47537312244091],[72.97474849796883,36.49433496221719],[72.98276048668919,36.50148273210751],[72.97791320784376,36.511525012218875],[72.99028972835055,36.513046578327604],[72.99915791923682,36.52005672848314],[73.00016716722418,36.518093974146254],[73.01767142136683,36.52502987625517],[73.05194534829769,36.53296636709232],[73.05366503577608,36.54093848498222],[73.05250160164411,36.548684226936615],[73.06194673220674,36.5611928016058],[73.07801720699999,36.569177002759986],[73.07950033985377,36.58559671915295],[73.09395141409668,36.599857715713455],[73.09716682702542,36.60599429130779],[73.0978944519709,36.609917972124194],[73.09629461050557,36.613527033601706],[73.07410571151847,36.62878386682929],[73.07984534316967,36.63880325801406],[73.07802119048566,36.652861801433275],[73.08042920542798,36.669979744931965],[73.07071230232249,36.67983002031607],[73.0676456532567,36.70062256271169],[73.09522078478882,36.68335855124137],[73.10584035995294,36.68589137275261],[73.11644082005387,36.684195427828435],[73.13808873556538,36.69850678259919],[73.1625443418313,36.707585019717776],[73.16788080874679,36.71302149456172],[73.17067141294149,36.724030819212174],[73.175043089232,36.717972779719354],[73.1865570382367,36.71030198629884],[73.18549895072624,36.70492159666404],[73.18669045951586,36.70118604906322],[73.19228524908603,36.6977331744095],[73.20139620751115,36.695529223336386],[73.20954703241458,36.695512261731146],[73.22880491841578,36.701487177252915],[73.23801431080757,36.711520654961014],[73.24611641647921,36.70538242343496],[73.2555611905032,36.704523415178954],[73.26679036105362,36.70617969287234],[73.28571902007285,36.70379306837243],[73.29411981942596,36.70422666297937],[73.30394501860425,36.70627160895402],[73.31079162112852,36.71431949040043],[73.34461473410934,36.71472010080661],[73.34783175615833,36.71639960916537],[73.34833322688671,36.72197972174867],[73.35211077449857,36.728240317483454],[73.35157584695027,36.73500408432184],[73.37377572538908,36.73106420553231],[73.38416910115203,36.732903362921526],[73.38987788249374,36.72978276860687],[73.3944208566478,36.73006559351983],[73.39894660092364,36.73301675716896],[73.41017422838395,36.73477459857834],[73.4164438398475,36.74101595568966],[73.42144221228962,36.742983287174205],[73.42531570980441,36.74290647716826],[73.42795665465555,36.73310811677479],[73.4338821092438,36.73099518559943],[73.44671333373854,36.728918463721136],[73.45865961021876,36.73259071718965],[73.4619718866578,36.73504994090965],[73.46640583816807,36.73243535754268],[73.46856622074608,36.728512438894974],[73.47910016860244,36.72312237548481],[73.47931084329586,36.71946013635647],[73.49763291916162,36.713135596025396],[73.50983830980425,36.721930117967226],[73.51247665980576,36.72169435361206],[73.5198978388524,36.71029177161009],[73.53420202110262,36.71137728559966],[73.54982073996194,36.7160690057781],[73.55433492954074,36.709562449796664],[73.57930167434063,36.72238069841328],[73.58555718369438,36.70948700079034],[73.58654205714468,36.69940217972645],[73.5927136612032,36.692843829067606],[73.6068221902286,36.69491738249168],[73.61559883816514,36.69112278939921],[73.62158150669728,36.690340120066196],[73.62525284827834,36.69136380632411],[73.63481496966507,36.69816304087783],[73.63800384363566,36.697945428427964],[73.64835798392807,36.69309443857822],[73.68311052586114,36.68656780960117],[73.69222117265907,36.68912120145877],[73.69497975757353,36.6991192967058],[73.70361876637779,36.70521380031478],[73.70985361271534,36.71233334749391],[73.71720913983263,36.711708041552654],[73.72706713112437,36.71328519946508],[73.7367050793492,36.70884854734759],[73.75673309615266,36.70633951351388],[73.77478392803617,36.702089623188414],[73.77985325431528,36.710388435895375],[73.78445914876802,36.714555678852086],[73.79555117018378,36.718841696168205],[73.8124875253683,36.71477100269392],[73.848659245887,36.70236830645452],[73.87177612299574,36.70140052871767],[73.87865064141248,36.70709052922766],[73.8736394420014,36.72059322847406],[73.88529327529234,36.72989687581354],[73.88305132755603,36.733043178686124],[73.8841008341396,36.73919551131839],[73.88221866582623,36.74846966004375],[73.86798889062072,36.76631694209065],[73.85322856097011,36.776027560062765],[73.84010650592631,36.793687277682814],[73.83698687316488,36.79513383734184],[73.83158827365178,36.7952772331027],[73.81479025145633,36.78901502546963],[73.80639783274347,36.79083057273615],[73.80151307063001,36.794215121427484],[73.80040592898818,36.799289614266996],[73.7963605906093,36.802481300969525],[73.79757326802647,36.818197917851506],[73.78812928204573,36.818974795415556],[73.77396772978219,36.81502604988286],[73.758835975677,36.81615486531598],[73.75439938374132,36.81888683766838],[73.74909209638845,36.82736769236365],[73.73865962402206,36.82599469566337],[73.7366324586516,36.830146083405474],[73.73202320481992,36.83098159600749],[73.72529739319813,36.83507574710639],[73.71983520154323,36.83632498266302],[73.71178530517473,36.834368942774255],[73.705509598582,36.837811561228335],[73.70696679826612,36.84642234591956],[73.70618722410377,36.857953284795926],[73.68942324047147,36.8659081313875],[73.6872617000807,36.869942342746015],[73.68250182204096,36.873438288862886],[73.66700745523815,36.88088069587852],[73.66528812588444,36.89182029426598],[73.66771574503358,36.900353395874106],[73.67135863209722,36.90448526030256],[73.6710933052826,36.91169833616333],[73.69723902328165,36.91430672632211],[73.70345129895225,36.91208537988705],[73.72055011947273,36.900697901346696],[73.72872508972712,36.89799025225206],[73.73351494295416,36.89893935471373],[73.74486262360577,36.90890062914955],[73.7513224944502,36.90968651369516],[73.7587606209263,36.90528458221219],[73.76554548107033,36.9051926019847],[73.77358125266076,36.896300009820166],[73.7869314377376,36.900154007540216],[73.79410212625491,36.90015755776119],[73.79960642368157,36.89359147773563],[73.80071991632362,36.887495871335766],[73.8101686436266,36.888580973085],[73.82044278967696,36.903091027736814],[73.838411818939,36.8994667065046],[73.85926115450113,36.89731861029615],[73.87049739755886,36.89420623593731],[73.88259161907774,36.880981615843496],[73.89302041328614,36.87546052638494],[73.90675213423819,36.88382635544188],[73.91490226436605,36.88298262322395],[73.94126921065119,36.862109713779745],[73.95055713359297,36.845776582318095],[73.95722909595867,36.84337713034956],[73.96149925408766,36.83926671939755],[73.98195635645476,36.82957673530759],[73.99542147443796,36.834171320849734],[74.00837677791677,36.83377385520241],[74.02777986411051,36.82611208610473],[74.03969222664402,36.81511245157805],[74.04652144827176,36.81082176010729],[74.06868252778918,36.83130340807745],[74.08551677989843,36.84150731913885],[74.08882687081186,36.84214335207068],[74.11631455854715,36.83572792757983],[74.13345904913862,36.847903451058045],[74.1353009278135,36.85012786394901],[74.14419906264654,36.89092406221518],[74.1557502586249,36.91050768035198],[74.22109524370543,36.90271407272014],[74.24897082292055,36.893605664108776],[74.28260894838175,36.90918570227276],[74.31482133441185,36.92733222753131],[74.32913021653518,36.93814601901464],[74.33643793878032,36.94702905266284],[74.35080322130352,36.96006889922726],[74.37568884952587,36.9733786307663],[74.38866400694201,36.97346641716784],[74.40818186739664,36.98155582264198],[74.4126888368638,36.98451558523932],[74.41714653756523,36.99343340374924],[74.42642432229636,36.99569289070924],[74.45683270033194,36.99829275879822],[74.51382921825049,36.99648096866016],[74.52295745889889,36.995128726995006],[74.53430992901417,36.98323579293455],[74.53728757289218,36.97736862159856],[74.54033383360951,36.963316323821054],[74.54255070567164,36.96135483413861],[74.55106793477142,36.959065039674876],[74.56054386863185,36.95719753216441],[74.56410133942394,36.95789724941937],[74.56913688168287,36.97030108175808],[74.58041834827746,37.02101185159488],[74.57790608163256,37.04579841757707],[74.57496012360016,37.04956214115442],[74.56812173497065,37.05176000870548],[74.58166883991792,37.05757460321962],[74.58940793305827,37.0591621147386],[74.60479382397325,37.05924970586285],[74.6337990508995,37.06370306650411],[74.65237400887774,37.07008674633465],[74.681170492994,37.08671380889106],[74.69012295773597,37.088140591545184],[74.70739054437104,37.08728835088196],[74.70885759679935,37.07331373037516],[74.7159106894413,37.05365248154854],[74.72635677135104,37.038500001721964],[74.73817230734318,37.02678410437218],[74.74942400549027,37.01938689441235],[74.7531840252729,37.021884493459034],[74.7601925587793,37.035970925165905],[74.769054813293,37.041221919521185],[74.78331018268949,37.0409953006453],[74.80477375869928,37.034982113057275],[74.82919991460635,37.03902729455846],[74.83582846961048,37.03799361455846]]],[[[77.9603159434024,35.486139895730076],[77.93926583546329,35.506909042336744],[77.93751582237553,35.517220288870675],[77.96346462243821,35.558339222152895],[77.96793558629085,35.571765879687874],[77.95376712910377,35.60158484230186],[77.9578084560947,35.60486753160105],[77.99070557152068,35.584986212872906],[78.00139710208083,35.58236907632936],[78.03688107839496,35.58502545268548],[78.05556140089793,35.58178741029458],[78.07494303215204,35.55933353641564],[78.0843516987731,35.55201862644002],[78.09285812534449,35.54956274428058],[78.10575353249342,35.55335150380779],[78.1315808271745,35.54236124084391],[78.13676575056144,35.53656839685654],[78.14907378763519,35.54159624091346],[78.1572352542272,35.548743173386015],[78.16491206701309,35.55173612985944],[78.16045937313639,35.570046845739846],[78.1595993913086,35.58149027581764],[78.17063945409419,35.59439913234105],[78.17341306323974,35.60555847532299],[78.16982508598278,35.624998211375],[78.1759861312011,35.62751047388552],[78.19743751896743,35.62283850864352],[78.19592485566174,35.63493168013064],[78.20770390986509,35.647779720642035],[78.20698896425354,35.660408958641625],[78.21204885930617,35.66599957635748],[78.25588273187206,35.64579080980126],[78.26561150631585,35.647419330308324],[78.26867518641586,35.654387254736626],[78.28270164654661,35.66163895633058],[78.28450706408206,35.66449021830407],[78.27718960726688,35.677042760106175],[78.27551980595558,35.71249972623632],[78.27695029295126,35.71837413963103],[78.2876965438174,35.72231621478599],[78.29792775696997,35.728094320911595],[78.31925616129183,35.72221657632692],[78.33795537011562,35.71893864973133],[78.40386366145309,35.735849330071034],[78.40865564352713,35.73905948081461],[78.40906801652804,35.74860690966534],[78.4124057721995,35.75193302597891],[78.4159430896428,35.76302706955018],[78.42611623367601,35.76820180451471],[78.43024090802588,35.77805097479887],[78.44267157831341,35.78364277086837],[78.47543240147974,35.77502807588221],[78.51254448463516,35.77204199534464],[78.53416402004916,35.762512781396424],[78.56026961406329,35.777767551660254],[78.61003270802782,35.812054995407856],[78.62167949110636,35.81110738579078],[78.64643064161206,35.821067133887624],[78.665219498797,35.83630074602993],[78.67331106271781,35.85420353692476],[78.69523581834181,35.85899643929526],[78.71052921047342,35.857742610953984],[78.72830783124328,35.86466687985344],[78.7489206017305,35.86476800966135],[78.78622026967768,35.86887834233578],[78.81999049401331,35.8565012100398],[78.83907085574955,35.856116085241474],[78.8722256345015,35.86234297135875],[78.92512110715964,35.867510212292395],[78.95210778367553,35.87722862822104],[78.96920489747421,35.890168998473186],[78.9823900960498,35.889659687172504],[79.01314779584725,35.85951404896625],[79.03224771557693,35.84771722167681],[79.14242428047602,35.83476107521923],[79.16467252908289,35.83818619934387],[79.18164429901391,35.85357390250911],[79.21275983387461,35.87786556934347],[79.20449494995927,35.92770244577786],[79.21313120877574,35.95451947665795],[79.23089883918777,35.9721641863176],[79.25170090672304,35.98475294572021],[79.35803111216836,35.99173278685317],[79.40093204604959,35.99279116838346],[79.41035345555176,35.985977349983166],[79.4302747122987,35.908136228370026],[79.44019981293208,35.89408335785389],[79.468042053565,35.88744541635176],[79.53622797068893,35.87963863128427],[79.56237975852355,35.86593667265996],[79.61925070690947,35.845300318808796],[79.68230547849731,35.83247490972975],[79.72837965901753,35.81395178576557],[79.75109058971526,35.796918989833735],[79.82846699761588,35.78692242556435],[79.88708822652373,35.774393254512205],[79.8989594817988,35.77510864093628],[79.90453509563518,35.778197167934934],[79.91537570381642,35.792796802264355],[79.93834122775108,35.80988352954876],[79.96769554738373,35.82518118135548],[79.99969744276834,35.827636653543976],[80.01569235268929,35.82616357856605],[80.04261370146426,35.80269042872138],[80.06213934004865,35.76849966894348],[80.07750565904314,35.72569240869521],[80.10052005617763,35.70616143150587],[80.11215989928543,35.68948359859601],[80.12889651619594,35.65673282800038],[80.21308208520459,35.63865726659028],[80.26858888941884,35.61543344356281],[80.3117119721394,35.587956126272296],[80.31793852613771,35.56456477195421],[80.31346349776233,35.54338729650126],[80.31462835969839,35.53607617558547],[80.3268258276625,35.528918331750006],[80.33459435207708,35.49577591274312],[80.34508361147005,35.46117218167006],[80.33978235779837,35.44967389070767],[80.3212065071938,35.437636584465594],[80.29848467263419,35.416988317016134],[80.2961609046829,35.39020266855502],[80.297475549336,35.35286837764613],[80.2839195695081,35.31394281865288],[80.25120732971749,35.24802046794371],[80.24265702387109,35.20801550973245],[80.22623175836955,35.179558201855976],[80.19916369838134,35.153304324574094],[80.18503256934859,35.13062827777867],[80.18805454048537,35.052910680142794],[80.18689509400906,35.00799859376606],[80.17142418157215,34.965036507560306],[80.12723516230297,34.87254927333094],[80.08976434824658,34.828045266951726],[80.07499516334303,34.80541788310842],[80.06921253128831,34.768738880117574],[80.06932380244147,34.70088653263299],[80.06531123639259,34.6928577457792],[80.04327843928581,34.68591812331699],[80.00427093317084,34.68236256611891],[79.97371578210213,34.6768077203089],[79.94466249615762,34.66090085898293],[79.92155698732354,34.67265131807398],[79.87825965397698,34.67485900528168],[79.87514374349719,34.66794355609583],[79.85823862143847,34.66650300892951],[79.82936395268324,34.63554919704165],[79.77660426282955,34.610383780962124],[79.77549094098221,34.60208236207046],[79.78991373926598,34.59055468206197],[79.7943756532912,34.58054060419384],[79.7770938262632,34.56531945194904],[79.76881540591879,34.55227248125673],[79.76977587542392,34.537777807501314],[79.8091060159118,34.52275871828291],[79.82104480432605,34.51445548009951],[79.81610383549831,34.483093383616406],[79.80384960082922,34.472815641760235],[79.79143873084915,34.466753603305925],[79.75380900320903,34.46720697684234],[79.74442467845535,34.462063881226946],[79.72588293815446,34.46976374100643],[79.68180661546188,34.47078523125434],[79.66286434857811,34.47551057656606],[79.65338798606508,34.48057365672164],[79.63350061900819,34.478177539331405],[79.6148004729958,34.47927219326994],[79.5983927545618,34.486758983573736],[79.58353278341743,34.478498764659925],[79.54035415938895,34.46978755036427],[79.52215475550535,34.46362185065819],[79.52145558994148,34.4582832180246],[79.52802826650647,34.442088067173536],[79.52755084654865,34.41632328130806],[79.53162878906619,34.40875415916932],[79.54332921763665,34.40409957559845],[79.56669791847888,34.40559363481913],[79.568936974975,34.400589779815434],[79.5613569204808,34.38146675445634],[79.56997688209863,34.33687124705701],[79.56851109545818,34.32019671505306],[79.57960117308907,34.29998556638974],[79.59696180926274,34.278003937797614],[79.59738897775841,34.264758807370306],[79.59213872620728,34.235820116695336],[79.57101301042177,34.212520949732614],[79.54005834405311,34.19130732209021],[79.53242099966683,34.19920002606391],[79.51314184673335,34.20093783565822],[79.50372238788013,34.195182910130086],[79.49368608402796,34.184680746357664],[79.49096202025675,34.147108675856956],[79.49595424144735,34.124448995763295],[79.46603320483119,34.09412335946649],[79.44697227156496,34.086229318182774],[79.42750847923098,34.080769833160275],[79.4211131207025,34.075939795823196],[79.41452918077961,34.04171328039399],[79.4298505599569,34.031937797197855],[79.44287700976211,34.02116539836939],[79.43744996917572,34.01264765727697],[79.41550566006605,33.999005971455496],[79.37366769663076,34.02675412527795],[79.30050628016733,34.02965369630526],[79.28294375557034,34.027606742964906],[79.26040217638595,34.03740046154567],[79.23207607108783,34.04709877179573],[79.21841329312346,34.04169878111434],[79.20599154566949,34.040389529368326],[79.18685344953944,34.04867006176918],[79.17292876664253,34.05829151121152],[79.14800750876714,34.05506943487258],[79.14666540433062,34.03298252304097],[79.13823049531196,34.017515962188064],[79.11265090497781,34.00894457181399],[79.08035096871504,34.009953661941154],[79.02482780099909,34.0327649524043],[79.0011489413555,34.03360822483652],[78.9532093256544,34.01313125013682],[78.9256496373632,33.982494069327544],[78.91831709829638,33.963921795831446],[78.9226991744941,33.95274631221094],[78.9453388425284,33.92620352878016],[78.98672617811502,33.83623158618998],[79.002326383645,33.805479241052595],[79.00960840616658,33.79464753544476],[79.0131859264613,33.7829356257823],[79.0303519674523,33.78805018733435],[79.04361268560983,33.779098141450575],[79.06045450203011,33.77583472685512],[79.06409860626604,33.764714996587955],[79.05872345350343,33.75617997259117],[79.03798036379317,33.7453784757609],[79.01978465078814,33.7145483434014],[79.01610614175894,33.70226392408028],[79.02200456309582,33.68614847880804],[79.04631867830881,33.67383453867122],[79.07799577200421,33.686081917301124],[79.08170808993815,33.67555489205958],[79.09038256544132,33.635784336580144],[79.1001506140405,33.616324027732496],[79.09537379342272,33.61253988921062],[79.0660853472426,33.61929705579068],[79.03081934567798,33.62416563421851],[78.98945497514646,33.61454780059929],[78.96424756289382,33.61372582309932],[78.94033498988514,33.61758845448836],[78.9271609244349,33.62712438346658],[78.90948663895873,33.6292437358212],[78.90286043522407,33.62201120145986],[78.91452461707311,33.60600632798933],[78.90735220276382,33.58261762208712],[78.90625981387397,33.57370954615543],[78.92324694647839,33.56024608318362],[78.94377379075841,33.52606909118818],[78.94123941768267,33.51128354106016],[78.92747003079553,33.48666346599124],[78.9270779724671,33.454288014513686],[78.93997590631993,33.41356308118619],[78.95536051405168,33.381646994993375],[78.82325744628912,33.48348999023449],[78.71098327636713,33.654869079589844],[78.78398895263683,33.77043151855469],[78.71156311035156,33.92250061035162],[78.7703628540039,34.01972961425781],[78.70638275146496,34.072181701660156],[78.94211578369152,34.20479202270519],[78.99005126953125,34.317829132080135],[78.56933593750006,34.611949920654354],[78.42511749267578,34.60346221923834],[78.39836120605463,34.64863204956066],[78.24803161621105,34.69509887695307],[78.08287048339855,35.082489013671875],[78.12417602539068,35.135421752929744],[78.01370239257812,35.26418685913086],[77.99028778076178,35.379032135009766],[78.103988647461,35.4844589233399],[77.96350070037354,35.48011552753907],[77.9603159434024,35.486139895730076]]],[[[88.94151330833259,22.57547326199401],[88.94069739360495,22.56134834170879],[88.94446539127084,22.555998512130962],[88.95696961735752,22.55290750452042],[88.96186462627152,22.5487333846246],[88.96791355072372,22.534567537020692],[88.97188361056985,22.512119099251212],[88.95996093750017,22.548620223999308],[88.93350219726568,22.556119918823413],[88.89504241943388,22.559640884399357],[88.91444396972662,22.51111030578619],[88.89472198486345,22.466112136840877],[88.92053985595709,22.426691055297795],[88.91855621337908,22.422010421752873],[88.9077758789063,22.41583251953125],[88.92581939697283,22.406232833862305],[88.93000030517595,22.390279769897518],[88.89643096923845,22.37982940673851],[88.941947937012,22.30988121032732],[88.93944549560553,22.419010162353572],[88.95777893066435,22.36472129821783],[88.96416473388689,22.40916633605974],[88.9986114501956,22.430292129516715],[88.99704024405828,22.43510235880739],[88.99909076713722,22.43322049575706],[89.00007015853063,22.429839515174116],[88.98866457239804,22.42406732332297],[88.98410944687149,22.418328901121015],[88.97190680906719,22.409885842993937],[88.97293162454768,22.407156899332687],[88.97967226582428,22.400585105488087],[88.99004424316328,22.3935401814373],[88.99425138589959,22.38873319956968],[88.98594682074432,22.379812093569853],[88.98475646972673,22.382432937622013],[88.96736145019526,22.407690048217887],[88.97416687011724,22.395002365112305],[88.94721984863287,22.25555992126465],[89.01972198486334,22.205553054809627],[89.06218719482439,22.12842941284174],[89.09626007080107,22.155012130737475],[89.08274539096867,22.151268527090632],[89.08629673060241,22.1551372567986],[89.09115450564929,22.158247678608657],[89.09573670793802,22.157299862165416],[89.0985464501019,22.153417000717123],[89.09803665092551,22.147537823601084],[89.0947656769579,22.142793513200576],[89.07883537952947,22.13454165988889],[89.06146356157737,22.12106349376778],[89.0507566625137,22.116201450791454],[89.04162372213347,22.105616745283967],[89.0378566993504,22.094214050219815],[89.04327651415574,22.061668853167124],[89.05532898362075,22.040363928678765],[89.07273659651726,22.01925875390607],[89.07686319763523,22.008409742019275],[89.07967497555538,21.983967990227068],[89.07626355971111,21.959366616402626],[89.06900061482874,21.932857721627194],[89.06424314689657,21.930378573803402],[89.05130991446066,21.930031998386816],[89.03513662469516,21.92699033430307],[89.02782229276414,21.92888946525564],[89.0141023355108,21.940616502583225],[89.0019251350738,21.94566056544805],[88.99739347881875,21.95024947518625],[88.9971670061368,21.957235169446026],[88.99999735770831,21.95805664147236],[88.9992936964856,21.960010317577815],[89.01244538009463,21.972955514518738],[89.01409805815796,21.976722651219035],[89.01433274013738,21.979987473488],[89.01181664444978,21.984261983576797],[89.00122623370562,21.98640363417884],[89.0089505535422,21.98993145565631],[89.01548781246437,21.9949752582829],[89.02717447161955,21.997511439013486],[89.03038263300962,22.00104826661416],[89.02928808282888,22.001615491841907],[89.03250122070318,22.002082824707202],[88.99954986572294,21.94948387146019],[89.05976104736334,21.931970596313477],[89.07357788085966,22.00415992736845],[88.98493194580095,22.05494880676264],[88.9855041503908,22.045915603637752],[88.96807861328153,22.015541076660213],[88.97915649414091,22.00472068786621],[88.97447204589861,21.993642807007006],[89.02886490885132,22.001553943562563],[89.02478979307119,21.99780170701802],[89.01374253398029,21.996527647971053],[89.00032264500283,21.98766792178369],[88.9963081245974,21.98275124853707],[88.9881693921358,21.984473805663242],[88.98629084747068,21.98682322650578],[88.983784569547,21.98910959671862],[88.97053398441052,21.9934099191111],[88.96979071954526,21.995538459732956],[88.97091750480656,21.999949409277168],[88.96923898013597,21.997118515242416],[88.9622192382812,22.017221450805664],[88.97709655761713,22.038393020629883],[88.96363830566412,22.05699157714838],[88.93486022949224,22.05513954162592],[88.9461059570313,22.000001907348746],[88.94260668319266,22.00382280119252],[88.93817295765946,22.01185962151854],[88.93565095556828,22.011805583606982],[88.93553501181952,22.011544433411284],[88.92394256591797,22.02420234680187],[88.92463684082026,22.064592361450423],[88.98491668701166,22.127122879028548],[88.94996643066435,22.189191818237305],[88.91971588134783,22.161111831665096],[88.8939361572265,22.16969871521013],[88.94034576416016,22.127977371215934],[88.90143585205078,22.06528282165533],[88.91033816949316,22.009328837244308],[88.90807697939978,22.009739516925023],[88.90292308991779,22.00433035341268],[88.90249633789091,22.01166915893566],[88.76172637939482,22.014907836914062],[88.80029296875,21.970453262329045],[88.78196716308588,21.972703933715934],[88.77444458007818,21.989721298218],[88.76444244384783,21.984441757202262],[88.75332641601591,21.98527908325201],[88.75694274902372,21.972501754760742],[88.7525024414063,21.95611190795921],[88.78722381591803,21.95499992370611],[88.81452943277458,21.940850772390903],[88.80944343848661,21.94074184825606],[88.80574902404925,21.938068562693424],[88.80434332572527,21.93269443353128],[88.79987450415962,21.926754524453834],[88.79904457908877,21.92210312637416],[88.81328061978343,21.903832146755054],[88.82763347471165,21.900056917289977],[88.83339498862594,21.896376503227017],[88.83906434094476,21.887511895679292],[88.81138610839861,21.896389007568587],[88.8091659545899,21.883329391479776],[88.80027770996088,21.87055587768549],[88.82138061523443,21.87249946594261],[88.82943725585966,21.864717483520565],[88.83945996499432,21.884261430901546],[88.83822465746333,21.876658841250016],[88.83253562154339,21.867003248841083],[88.8200665565268,21.83775840782585],[88.8222155292176,21.825981452220564],[88.83083257194937,21.808069530572514],[88.82532463850198,21.799022742524997],[88.82167053222673,21.822900772094954],[88.7908325195313,21.750009536743164],[88.83027648925798,21.76666450500511],[88.82993599083206,21.768889517325565],[88.83258232746337,21.76619630081456],[88.86093862263222,21.76382243391445],[88.86465382031557,21.761266539297043],[88.86383893983101,21.757808928531226],[88.7630190162176,21.701652530469694],[88.76270887076583,21.70197187715093],[88.762659997185,21.704426598680563],[88.78071586937683,21.7144266632939],[88.7839119504848,21.719070597457698],[88.78439250784918,21.723369734454526],[88.78090233422427,21.73196102235403],[88.79383448973473,21.737005474083713],[88.79145584053252,21.74008175601017],[88.78615467707981,21.741381803230013],[88.78605201120361,21.742851636922886],[88.79057179165656,21.746757204735243],[88.79049158109687,21.750034474088107],[88.78741502385891,21.74624149793949],[88.78210449218761,21.82519340515148],[88.77715065108508,21.813100699433885],[88.77644473941956,21.816406848403872],[88.78114707517474,21.825167384828834],[88.77703987922578,21.825437549688658],[88.77403138339969,21.8167714914056],[88.77482517416165,21.81025260913421],[88.77022996061277,21.805449609617355],[88.76412059109157,21.789568682329843],[88.75827120962276,21.78443279136684],[88.768608093262,21.852500915527457],[88.78056335449224,21.8594398498538],[88.71805572509794,21.907222747802734],[88.71415630472364,21.894614992769444],[88.71587310959144,21.903550008132115],[88.71656231010753,21.92070353768431],[88.72274562009764,21.93215453972088],[88.72549429466524,21.979543107137708],[88.7408380178431,21.98796120074261],[88.75039131366384,21.997568691303712],[88.75188443774586,22.00093965245298],[88.75146465535829,22.006230923507793],[88.73327592685943,22.00666321665566],[88.71485039992884,21.999210253772976],[88.71578216552729,22.000640869140852],[88.6599731445313,22.019212722778377],[88.62864685058611,21.958030700683764],[88.6463043007338,21.95262244329918],[88.64389323524328,21.952386177641433],[88.63824416382077,21.949370315106616],[88.63071753273734,21.9543603120732],[88.6278955261639,21.958857869300726],[88.62802143121317,21.96559049257281],[88.63187619268218,21.988284388568978],[88.61693380738726,21.993405116689523],[88.61869182335661,21.998596857578118],[88.6316980607181,22.011685089148113],[88.62350519730349,22.01145908842845],[88.61349286427097,22.006712948247706],[88.6144409179688,22.019720077514762],[88.59990692138678,22.023595809936694],[88.60491943359403,22.048328399658146],[88.59622955322283,22.061040878296126],[88.59658050537104,22.06726646423357],[88.60166168212896,22.073610305786246],[88.596733093262,22.063297271728743],[88.6063537597658,22.04772186279297],[88.60340118408232,22.023559570312557],[88.63665771484392,22.045289993286133],[88.62953948974638,22.050611495971964],[88.6272964477539,22.054809570312727],[88.61996459960943,22.104549407959098],[88.59757232666033,22.1306209564209],[88.60337066650396,22.159088134765625],[88.57274627685547,22.189100265503043],[88.60462951660173,22.15977478027355],[88.6192855834961,22.108840942382926],[88.67246246337919,22.201198577881087],[88.63934326171892,22.208120346069563],[88.63091278076166,22.22204971313488],[88.67916870117182,22.293891906738224],[88.6661224365235,22.33904075622553],[88.69055175781261,22.32666587829607],[88.68492126464861,22.29427528381376],[88.63949584960932,22.213098526000977],[88.66562652587885,22.21745109558111],[88.74138641357439,22.198608398437727],[88.80467224121088,22.283241271972656],[88.8113404387802,22.31736937103663],[88.81223297119146,22.315832138061523],[88.80652618408232,22.285749435425032],[88.81545257568365,22.282972335815373],[88.81664276123075,22.27167892456049],[88.82730102539068,22.26545143127447],[88.82956695556646,22.253721237182674],[88.82842254638678,22.24190521240257],[88.81855010986357,22.230939865112305],[88.80055999755865,22.22584152221708],[88.80576324462919,22.220592498779297],[88.8064041137697,22.209434509277344],[88.81636810302734,22.20584297180193],[88.81948852539074,22.19635963439964],[88.82546234130854,22.19840049743658],[88.82461547851568,22.20433616638212],[88.82691192626959,22.20848846435547],[88.82990264892595,22.210130691528377],[88.83679199218756,22.207059860229435],[88.84426879882818,22.19031715393095],[88.84831237792997,22.19155120849632],[88.85037231445318,22.202470779419173],[88.85446929931658,22.20621299743675],[88.88108062744146,22.200164794921932],[88.8822784423831,22.2115993499757],[88.84946441650419,22.209789276123274],[88.84194946289068,22.211740493774357],[88.83943176269548,22.215526580810604],[88.87583923339861,22.252803802490405],[88.84101104736334,22.214263916015852],[88.88350677490234,22.212270736694336],[88.88608551025419,22.206823348999308],[88.8834381103515,22.200052261352823],[88.86618041992193,22.194147109985465],[88.87226867675787,22.17136955261242],[88.89822387695318,22.177907943725586],[88.91860961914068,22.16534996032715],[88.90448760986328,22.197242736816406],[88.91388702392584,22.216108322143782],[88.88723754882841,22.26490974426281],[88.86486053466803,22.270151138305664],[88.8433303833009,22.289720535278434],[88.84996795654303,22.289308547973917],[88.86315155029303,22.2763996124267],[88.86509704589872,22.27080917358404],[88.87261962890642,22.274549484253043],[88.8767700195312,22.27449226379389],[88.88761138916044,22.265932083129883],[88.91387176513678,22.219903945922965],[88.91896820068376,22.233032226562614],[88.9540786743164,22.22524070739746],[88.93692779541021,22.29911231994646],[88.84986114501982,22.36291694641119],[88.81533956732748,22.337837069213233],[88.82008788157104,22.36213912943355],[88.82195281982428,22.360891342163313],[88.84923553466803,22.36454200744629],[88.871391296387,22.35889244079584],[88.87590789794928,22.354921340942667],[88.87528228759783,22.357759475708065],[88.86110687255888,22.365022659301815],[88.84610748291033,22.388332366943416],[88.84834289550776,22.43056488037132],[88.81848144531256,22.430572509765682],[88.80252075195341,22.443422317505167],[88.77953338623064,22.493150711059798],[88.7784271240235,22.506084442138615],[88.73357391357439,22.509992599487305],[88.70780181884783,22.52769470214855],[88.69019317626982,22.52298164367687],[88.69023132324213,22.532949447631893],[88.6809158325197,22.53638839721691],[88.68112945556658,22.54369163513195],[88.6722259521485,22.54944038391136],[88.67169952392607,22.556684494018498],[88.67833709716803,22.59361076354986],[88.68087005615263,22.57738494873047],[88.67359161376982,22.55002212524414],[88.68226623535173,22.543781280517635],[88.68234252929693,22.537443161010742],[88.69132995605497,22.534059524536246],[88.69066619873064,22.52441215515148],[88.70925903320341,22.52907752990734],[88.73414611816423,22.51091957092291],[88.73898315429693,22.51418113708496],[88.75041961669928,22.51696586608898],[88.76837921142607,22.513439178467024],[88.78277587890642,22.522777557373274],[88.7663879394533,22.56083488464367],[88.85244750976568,22.432832717895508],[88.8428115844726,22.507873535156364],[88.86888885498058,22.545835494995117],[88.89638519287138,22.563333511352766],[88.93760681152338,22.569932937622013],[88.94112700544075,22.577085544162244],[88.94151330833259,22.57547326199401]],[[88.73093414306646,22.043598175048828],[88.73398590087896,22.042261123657283],[88.73339080810564,22.043600082397404],[88.73093414306646,22.043598175048828]],[[88.62944793701172,22.05250167846691],[88.63222503662138,22.06166839599615],[88.62860870361357,22.061950683593693],[88.62944793701172,22.05250167846691]],[[88.69036102294933,22.08107185363764],[88.68899536132818,22.0819034576416],[88.68896484375006,22.081111907959098],[88.69036102294933,22.08107185363764]],[[88.69203186035162,22.085519790649414],[88.69288635253935,22.078077316284464],[88.7039871215822,22.088302612304858],[88.69203186035162,22.085519790649414]],[[88.69519042968744,22.20861244201666],[88.6341857910158,22.10621070861845],[88.66377258300798,22.023761749267578],[88.72104644775396,22.005300521850586],[88.68305206298834,22.08083152770996],[88.73805236816435,22.13454055786127],[88.78864288330072,22.16813468933117],[88.69519042968744,22.20861244201666]],[[88.78527069091814,22.17361259460455],[88.77251434326178,22.17837715148943],[88.78864288330072,22.16813468933117],[88.78527069091814,22.17361259460455]],[[88.72985076904325,22.12344932556158],[88.73551940917974,22.123619079589844],[88.73627471923834,22.12877655029297],[88.72985076904325,22.12344932556158]],[[88.74623870849615,22.202907562255916],[88.74639129638678,22.20444488525385],[88.74611663818354,22.204711914062727],[88.74623870849615,22.202907562255916]],[[88.79444122314459,21.812501907348746],[88.7955627441408,21.801670074463004],[88.78888702392595,21.795829772949503],[88.79499816894548,21.79138946533226],[88.82971954345703,21.86222076416027],[88.7877807617188,21.86361122131359],[88.78583526611345,21.865278244018725],[88.78610992431652,21.8683319091798],[88.79250335693376,21.87388992309576],[88.77694702148443,21.866952896118164],[88.78221130371111,21.859720230102766],[88.7658309936524,21.82888984680187],[88.78415679931646,21.826110839843807],[88.78971862792974,21.821390151977596],[88.79444122314459,21.812501907348746]],[[88.7488861083985,21.897222518921126],[88.75055694580095,21.888891220092887],[88.75749969482433,21.886390686035384],[88.75805664062506,21.880277633667276],[88.77194213867193,21.878059387207145],[88.77610778808611,21.869720458984546],[88.80805206298857,21.884443283081282],[88.79944610595709,21.919721603393782],[88.73611450195318,21.918056488037053],[88.71888732910173,21.909166336059627],[88.7488861083985,21.897222518921126]],[[88.75070953369158,21.954851150512695],[88.7453918457033,21.97973823547369],[88.73332977294916,21.924720764160213],[88.79939270019531,21.925928115844954],[88.75070953369158,21.954851150512695]],[[88.75829315185575,22.00712013244629],[88.74283599853544,21.983400344848746],[88.75277709960966,21.988332748413086],[88.75829315185575,22.00712013244629]],[[88.77890777587919,22.03718376159668],[88.77565765380888,22.049722671508846],[88.76167297363287,22.02139091491722],[88.79104614257818,22.029371261596907],[88.77890777587919,22.03718376159668]],[[88.89204406738298,22.04933738708513],[88.89021301269537,22.045843124389933],[88.85198211669922,22.04123115539568],[88.89170074462908,22.014724731445312],[88.90278625488287,22.0453338623048],[88.88639831542974,22.057773590088118],[88.89204406738298,22.04933738708513]],[[88.78015899658209,22.03783226013212],[88.83220672607428,22.027170181274414],[88.8314285278322,22.050241470336914],[88.78015899658209,22.03783226013212]],[[88.89028930664091,22.0478324890139],[88.87016296386724,22.06305122375494],[88.8529205322265,22.07875251770031],[88.83438110351591,22.063890457153434],[88.81999969482428,22.064172744750977],[88.84555053710938,22.061670303344727],[88.8359603881836,22.02544975280773],[88.85395050048834,22.044626235962028],[88.89028930664091,22.0478324890139]],[[88.87020874023443,22.086900711059798],[88.8722229003908,22.079072952270565],[88.87096405029303,22.06435775756853],[88.89090728759783,22.060356140136776],[88.9040832519533,22.084207534790266],[88.87020874023443,22.086900711059798]],[[88.80346679687511,22.08527374267578],[88.78375244140625,22.10694313049322],[88.74842834472673,22.057422637939737],[88.77194213867193,22.054723739624023],[88.78124237060564,22.048362731933878],[88.7872161865235,22.072221755981673],[88.83621215820318,22.066339492798136],[88.82778167724626,22.08603477478033],[88.81501770019548,22.080583572387923],[88.80346679687511,22.08527374267578]],[[88.80590057373053,22.084753036499308],[88.81920623779314,22.1044216156007],[88.86750030517584,22.082502365112248],[88.84572601318376,22.11942100524925],[88.81790161132818,22.123029708862532],[88.80590057373053,22.084753036499308]],[[88.9852905273437,22.056982040405273],[89.02604675292974,22.05293273925787],[89.0233764648438,22.078786849975643],[89.02768707275408,22.079153060913313],[89.02880096435564,22.07713127136242],[89.02996826171892,22.059122085571403],[89.02767181396501,22.05352210998558],[89.03822326660162,22.053392410278434],[89.01464843750028,22.11400794982916],[89.05047607421903,22.13063240051281],[88.97268676757841,22.193437576294116],[88.99694061279297,22.13802719116211],[88.9779129028322,22.039922714233683],[88.9852905273437,22.056982040405273]],[[88.84884643554693,22.168888092041186],[88.86024475097662,22.142448425292912],[88.83069610595709,22.127080917358455],[88.91574859619146,22.090299606323356],[88.89994049072271,22.148092269897575],[88.84884643554693,22.168888092041186]],[[88.70471954345697,22.065000534057617],[88.73916625976568,22.05699157714838],[88.77764129638689,22.111221313476562],[88.8046112060548,22.13054084777832],[88.85588836669928,22.14445304870634],[88.84329986572271,22.167179107666016],[88.86048889160162,22.203294754028605],[88.85324096679693,22.20433235168457],[88.85025024414057,22.192199707031364],[88.84474945068376,22.189191818237305],[88.82805633544928,22.208040237426815],[88.8405075073245,22.174940109252987],[88.83827209472673,22.167032241821346],[88.7491607666015,22.135000228881836],[88.70471954345697,22.065000534057617]],[[88.76663208007818,22.190641403198356],[88.76552581787138,22.191961288452262],[88.74669647216797,22.195562362671183],[88.76634979248064,22.189176559448242],[88.76663208007818,22.190641403198356]],[[88.96158599853527,22.19721031188965],[88.93237304687506,22.225000381469954],[88.90806579589861,22.196310043335018],[88.93148040771513,22.177011489868107],[88.96158599853527,22.19721031188965]],[[88.79846954345709,22.22597312927246],[88.81259918212896,22.28339195251465],[88.7472457885745,22.198629379272575],[88.76744079589872,22.194210052490348],[88.79415130615263,22.170570373535384],[88.83405303955078,22.166852951049805],[88.82749938964855,22.19498634338379],[88.81822967529314,22.195589065551758],[88.80554199218756,22.20835304260254],[88.79846954345709,22.22597312927246]],[[88.88057708740229,22.403211593628157],[88.8619461059572,22.3988876342774],[88.89861297607428,22.33667373657238],[88.87484741210966,22.386831283569563],[88.88057708740229,22.403211593628157]],[[88.86972045898438,22.410001754760685],[88.87194824218778,22.405277252197322],[88.8744430541995,22.405555725097884],[88.86972045898438,22.410001754760685]],[[88.91722106933611,22.423612594604492],[88.9171905517581,22.429029464721964],[88.911430358887,22.42369651794445],[88.91722106933611,22.423612594604492]],[[88.8677368164063,22.48786735534668],[88.85612487792997,22.42278099060053],[88.8821868896485,22.40363693237316],[88.87660217285173,22.386917114258097],[88.8980560302735,22.366666793823356],[88.89639282226591,22.373611450195256],[88.88804626464861,22.378332138061467],[88.92166900634771,22.40139007568365],[88.90277862548834,22.41472434997587],[88.89232635498053,22.46535301208496],[88.89769744873075,22.548860549926985],[88.84361267089861,22.50679969787592],[88.8677368164063,22.48786735534668]],[[88.85861206054716,22.46222686767601],[88.85694122314453,22.4725017547608],[88.85610961914074,22.458890914916992],[88.85861206054716,22.46222686767601]],[[88.80983734130876,22.481193542480412],[88.78138732910185,22.500562667846793],[88.80397033691406,22.444452285766772],[88.83483123779314,22.433803558349553],[88.80983734130876,22.481193542480412]],[[88.93627166748041,22.561334609985465],[88.93000793457048,22.563127517700195],[88.933609008789,22.55778312683117],[88.93627166748041,22.561334609985465]]],[[[68.53069512971311,23.753599530142964],[68.52700274465306,23.74582124418163],[68.52320129866636,23.746559251796857],[68.52107980245663,23.743889769086998],[68.51935043867483,23.74764918401736],[68.51153224858083,23.748329919865448],[68.50929377979281,23.750071867875686],[68.51680755615251,23.754579544067326],[68.49652862548857,23.830972671508846],[68.44790649414091,23.806531906128043],[68.4373626708985,23.73931121826172],[68.45325957469049,23.739866994927198],[68.44507131374064,23.735069894101283],[68.43886317063223,23.735673066567266],[68.43484345842671,23.73897933068357],[68.42771546919414,23.737147555126285],[68.42097679785012,23.73320877601375],[68.41884954590563,23.72709352352585],[68.41902527247369,23.71790183388793],[68.4127250148087,23.702974021558923],[68.40906604789178,23.67917410526181],[68.40349747747825,23.65771756685112],[68.40154506753493,23.626129349471412],[68.39770612613395,23.613213710122846],[68.39818516200624,23.60761105247627],[68.39470568575288,23.601033765843304],[68.38723906019418,23.594790909631215],[68.3552122197036,23.586262229656423],[68.33415124965032,23.57863317971855],[68.30811419947624,23.575595037429647],[68.29097865097599,23.57136565174589],[68.28186734377891,23.56612807805112],[68.27808122521736,23.559728584635423],[68.2726697521537,23.564291052787564],[68.26934982022166,23.56492833965135],[68.2656337213793,23.56351723858102],[68.2663214410223,23.567016523423167],[68.25961168230103,23.56685825971604],[68.25417246497688,23.569906120482646],[68.24415307821921,23.57057551659727],[68.24631488869974,23.572555767856045],[68.22955852405052,23.57798561612665],[68.23173702110688,23.57650780070614],[68.22985622745253,23.57667615480277],[68.22970765970439,23.574595026315123],[68.22361896359931,23.573903841649322],[68.22228748265381,23.57504689562439],[68.22455702838542,23.57727564584468],[68.2215494140328,23.577105977662647],[68.2221089605628,23.578685803388588],[68.22011506733858,23.578136225219154],[68.21992522297039,23.57971645051356],[68.21449979910018,23.582315682693626],[68.20775055969985,23.58333520105532],[68.19924000178918,23.57942543990069],[68.18823001057812,23.581805099092552],[68.18400027498787,23.587003073033216],[68.18537094402427,23.595553227834447],[68.19221000413386,23.58669724697024],[68.20159943148309,23.58530677902235],[68.20382884192533,23.586344004791027],[68.2072811825215,23.584667312012026],[68.20766913651711,23.586156891629397],[68.19512072669218,23.588736552200142],[68.18886123526136,23.600323755904643],[68.18502220281171,23.603932493823706],[68.1838629071615,23.60787416397937],[68.18103174479657,23.609383153129734],[68.18050169841096,23.607044741606785],[68.18004320807847,23.611925261715854],[68.17786385521707,23.614093000371554],[68.17751186879362,23.627862643409244],[68.18239200349447,23.638479194450003],[68.1859510073989,23.6412227156447],[68.18632053080502,23.64528114437891],[68.1964332728182,23.650342087072953],[68.20846984265826,23.650670091956663],[68.1957923104542,23.65223848318767],[68.18725155958388,23.65543853350425],[68.18257100124372,23.655038639607405],[68.18807162688739,23.65858942385334],[68.20177028786209,23.658668887738646],[68.20474683981709,23.662006643810788],[68.20665938784579,23.668888781602377],[68.20570194218935,23.680337904976867],[68.19848249355819,23.694606400601288],[68.1968202922601,23.702977167221825],[68.19178250369532,23.707345021040435],[68.18976262048015,23.717223786821517],[68.18165449355782,23.72163315782755],[68.18464308877127,23.737333610729483],[68.20263908150918,23.766671861849638],[68.20345259289827,23.78966825581357],[68.19904265588652,23.807687879963254],[68.19808241087443,23.836075382542223],[68.1995316538492,23.847094489658176],[68.20392188555454,23.858843404553806],[68.20663000046105,23.871960982328467],[68.2086499989026,23.87546309382096],[68.21689271640446,23.882491754230216],[68.22310027720079,23.88499343130828],[68.23083835683703,23.88573308652033],[68.25216519092692,23.89689812744687],[68.25799777229423,23.90301964950156],[68.27143487366905,23.92465774845303],[68.27985303082602,23.930816349206104],[68.2891838374428,23.93197740323544],[68.30209372842909,23.928025231275303],[68.27708435058594,23.914861679077262],[68.259017944336,23.875141143798942],[68.317642211914,23.879301071166992],[68.3051376342774,23.86569595336914],[68.2593078613283,23.871805191040266],[68.24874877929716,23.853759765625],[68.2873611450197,23.839307785034237],[68.26040649414091,23.824859619140682],[68.24540710449236,23.853759765625],[68.2345809936524,23.835969924926815],[68.21291351318388,23.834583282470703],[68.23430633544922,23.77486038208002],[68.21958160400419,23.754859924316463],[68.2137527465822,23.755416870117244],[68.21180725097673,23.763481140136832],[68.19264221191412,23.730970382690487],[68.23792266845697,23.681249618530217],[68.2668075561524,23.691806793212947],[68.25402832031256,23.71875],[68.2656860351563,23.792921066284237],[68.29569244384794,23.804311752319336],[68.28874969482428,23.81736183166521],[68.30374908447283,23.824583053588924],[68.33763885498075,23.819305419922102],[68.34485626220709,23.901250839233626],[68.41291809082037,23.92736053466814],[68.42384205505965,23.97053729762164],[68.46040209385427,23.970623162998397],[68.42819213867193,23.937919616699446],[68.44180297851591,23.936250686645735],[68.44876098632818,23.940139770507983],[68.46291351318365,23.932083129882926],[68.4531860351563,23.87985992431635],[68.43985748291044,23.866529464721907],[68.42819213867193,23.8618106842041],[68.4434661865235,23.848470687866495],[68.51847076416044,23.92430496215843],[68.49376702620995,23.970701524307128],[68.74989718678734,23.971303074892464],[68.74924468994169,23.96204566955572],[68.54680633544928,23.963193893432617],[68.53736114501982,23.94680976867687],[68.55930328369135,23.931804656982536],[68.55874633789062,23.924028396606445],[68.59597015380876,23.941804885864485],[68.6631927490235,23.91736030578636],[68.51486968994135,23.824029922485522],[68.53736114501982,23.815139770508097],[68.53354001778975,23.757032413191933],[68.53069512971311,23.753599530142964]],[[68.2273559570313,23.58542060852068],[68.2240295410158,23.584028244018555],[68.22819519042963,23.584306716918945],[68.2273559570313,23.58542060852068]],[[68.25347137451178,23.582080841064453],[68.24597167968767,23.589029312133732],[68.244857788086,23.58707809448265],[68.25347137451178,23.582080841064453]],[[68.21514129638678,23.58707809448265],[68.21710205078153,23.586250305175838],[68.2176361083985,23.587083816528434],[68.21514129638678,23.58707809448265]],[[68.19708251953153,23.59708595275879],[68.30680847167986,23.630701065063533],[68.27430725097685,23.5918102264406],[68.2948608398438,23.578750610351562],[68.30432128906267,23.59653091430681],[68.31485748291021,23.583196640014762],[68.38957977294939,23.6859722137454],[68.39041900634771,23.654306411743164],[68.42624664306646,23.794860839843977],[68.39791870117216,23.7848606109622],[68.35846710205072,23.80513954162592],[68.33403015136747,23.71097183227556],[68.23124694824213,23.642915725708235],[68.2593078613283,23.64596176147461],[68.28041839599638,23.652088165283203],[68.31181335449224,23.65014076232933],[68.29957580566423,23.64735984802246],[68.2798614501956,23.649026870727766],[68.2581863403322,23.64486122131376],[68.26013946533209,23.639860153198185],[68.21013641357422,23.640417098999137],[68.20458221435564,23.647640228271428],[68.19708251953153,23.59708595275879]],[[68.2240295410158,23.764030456543253],[68.21485900878923,23.75819587707531],[68.2176361083985,23.75569343566906],[68.2240295410158,23.764030456543253]],[[68.27403259277344,23.701250076293945],[68.28569793701178,23.754583358764705],[68.32430267334013,23.73430824279791],[68.30790710449247,23.823749542236328],[68.29013824462919,23.816804885864258],[68.29819488525385,23.8037490844726],[68.26763916015653,23.77236175537132],[68.27403259277344,23.701250076293945]],[[68.34180450439459,23.789304733276595],[68.3404159545899,23.777082443237532],[68.34680175781278,23.780138015747013],[68.34180450439459,23.789304733276595]],[[68.42652893066435,23.81042098999029],[68.39569091796892,23.878196716308594],[68.3301391601563,23.787361145019702],[68.35514068603521,23.810972213745288],[68.40152740478544,23.790416717529354],[68.37958526611357,23.838195800781307],[68.38430786132818,23.837360382080362],[68.38986206054693,23.8320827484132],[68.40541839599626,23.793191909790266],[68.42652893066435,23.81042098999029]],[[68.23402404785162,23.842916488647518],[68.24819183349638,23.88042068481451],[68.21597290039091,23.866809844970874],[68.21597290039091,23.847629547119368],[68.23402404785162,23.842916488647518]],[[68.53485870361357,23.864860534668196],[68.53041839599615,23.870971679687727],[68.52402496337885,23.85847282409668],[68.53485870361357,23.864860534668196]],[[68.42236328124994,23.894861221313704],[68.44209289550787,23.870422363281477],[68.44930267334001,23.938472747802848],[68.35291290283232,23.900693893432845],[68.34986114501982,23.846250534057788],[68.37735748291016,23.876529693603686],[68.39347076416021,23.88042068481451],[68.41707611084001,23.87236022949247],[68.42236328124994,23.894861221313704]],[[68.55847167968756,23.923194885253906],[68.53541564941435,23.945972442626953],[68.52569580078153,23.892641067504996],[68.48596954345709,23.889869689941634],[68.51708221435553,23.856527328491154],[68.53263854980486,23.876251220703296],[68.54680633544928,23.872917175293026],[68.58875274658209,23.91681098938011],[68.55847167968756,23.923194885253906]],[[68.52291870117205,23.945415496826172],[68.51457977294928,23.94958305358898],[68.51457977294928,23.949306488037166],[68.52291870117205,23.945415496826172]]]]}}